{
  "type": "FeatureCollection",
  "features": [
    {
      "type": "Feature",
      "properties": {
        "norad_id": 40362,
        "name": "YAOGAN-26",
        "group": "resource",
        "lat": 76.3951082839691,
        "lon": -165.38411489753244,
        "alt_km": 439.3900615799221,
        "timestamp": "2025-12-08T23:34:03.626747+00:00",
        "meta_object_name": "YAOGAN-26",
        "meta_object_id": "2014-088A",
        "meta_epoch": "2025-12-08T13:45:57.194496",
        "meta_mean_motion": 15.39076869,
        "meta_eccentricity": 0.00066851,
        "meta_inclination": 97.0646,
        "meta_ra_of_asc_node": 343.396,
        "meta_arg_of_pericenter": 41.9276,
        "meta_mean_anomaly": 318.2481,
        "meta_ephemeris_type": 0,
        "meta_classification_type": "U",
        "meta_norad_cat_id": 40362,
        "meta_element_set_no": 999,
        "meta_rev_at_epoch": 60830,
        "meta_bstar": 0.00063117014,
        "meta_mean_motion_dot": 0.00024419,
        "meta_mean_motion_ddot": 0,
        "tle_line1": "1 40362U 14088A   25342.57357864  .00024419  00000+0  63117-3 0  9997",
        "tle_line2": "2 40362  97.0646 343.3960 0006685  41.9276 318.2481 15.39076869608309"
      },
      "geometry": {
        "type": "Point",
        "coordinates": [
          -165.38411489753244,
          76.3951082839691
        ]
      }
    },
    {
      "type": "Feature",
      "properties": {
        "norad_id": 40376,
        "name": "SMAP",
        "group": "resource",
        "lat": -64.15748512691336,
        "lon": 4.924156946562475,
        "alt_km": 690.375430229903,
        "timestamp": "2025-12-08T23:34:03.626757+00:00",
        "meta_object_name": "SMAP",
        "meta_object_id": "2015-003A",
        "meta_epoch": "2025-12-08T14:01:10.877952",
        "meta_mean_motion": 14.63337619,
        "meta_eccentricity": 0.00012095,
        "meta_inclination": 98.129,
        "meta_ra_of_asc_node": 347.3679,
        "meta_arg_of_pericenter": 88.083,
        "meta_mean_anomaly": 272.051,
        "meta_ephemeris_type": 0,
        "meta_classification_type": "U",
        "meta_norad_cat_id": 40376,
        "meta_element_set_no": 999,
        "meta_rev_at_epoch": 57974,
        "meta_bstar": 0.00022781378,
        "meta_mean_motion_dot": 1.129e-05,
        "meta_mean_motion_ddot": 0,
        "tle_line1": "1 40376U 15003A   25342.58415368  .00001129  00000+0  22781-3 0  9990",
        "tle_line2": "2 40376  98.1290 347.3679 0001209  88.0830 272.0510 14.63337619579741"
      },
      "geometry": {
        "type": "Point",
        "coordinates": [
          4.924156946562475,
          -64.15748512691336
        ]
      }
    },
    {
      "type": "Feature",
      "properties": {
        "norad_id": 40536,
        "name": "KOMPSAT-3A",
        "group": "resource",
        "lat": -20.783139858995014,
        "lon": -39.943235385257495,
        "alt_km": 443.2210764526508,
        "timestamp": "2025-12-08T23:34:03.626768+00:00",
        "meta_object_name": "KOMPSAT-3A",
        "meta_object_id": "2015-014A",
        "meta_epoch": "2025-12-08T14:19:27.466752",
        "meta_mean_motion": 15.43717367,
        "meta_eccentricity": 0.00044799,
        "meta_inclination": 97.679,
        "meta_ra_of_asc_node": 316.7151,
        "meta_arg_of_pericenter": 135.4469,
        "meta_mean_anomaly": 224.7139,
        "meta_ephemeris_type": 0,
        "meta_classification_type": "U",
        "meta_norad_cat_id": 40536,
        "meta_element_set_no": 999,
        "meta_rev_at_epoch": 59231,
        "meta_bstar": 0.00057033747,
        "meta_mean_motion_dot": 0.00025715,
        "meta_mean_motion_ddot": 0,
        "tle_line1": "1 40536U 15014A   25342.59684568  .00025715  00000+0  57034-3 0  9997",
        "tle_line2": "2 40536  97.6790 316.7151 0004479 135.4469 224.7139 15.43717367592310"
      },
      "geometry": {
        "type": "Point",
        "coordinates": [
          -39.943235385257495,
          -20.783139858995014
        ]
      }
    },
    {
      "type": "Feature",
      "properties": {
        "norad_id": 40697,
        "name": "SENTINEL-2A",
        "group": "resource",
        "lat": -61.12156470863508,
        "lon": -140.2987243520619,
        "alt_km": 796.7395649981536,
        "timestamp": "2025-12-08T23:34:03.626778+00:00",
        "meta_object_name": "SENTINEL-2A",
        "meta_object_id": "2015-028A",
        "meta_epoch": "2025-12-08T14:02:50.425440",
        "meta_mean_motion": 14.30825272,
        "meta_eccentricity": 0.00010341,
        "meta_inclination": 98.5698,
        "meta_ra_of_asc_node": 55.1773,
        "meta_arg_of_pericenter": 94.9796,
        "meta_mean_anomaly": 265.1505,
        "meta_ephemeris_type": 0,
        "meta_classification_type": "U",
        "meta_norad_cat_id": 40697,
        "meta_element_set_no": 999,
        "meta_rev_at_epoch": 54647,
        "meta_bstar": 0.00015047364,
        "meta_mean_motion_dot": 3.51e-06,
        "meta_mean_motion_ddot": 0,
        "tle_line1": "1 40697U 15028A   25342.58530585  .00000351  00000+0  15047-3 0  9995",
        "tle_line2": "2 40697  98.5698  55.1773 0001034  94.9796 265.1505 14.30825272546477"
      },
      "geometry": {
        "type": "Point",
        "coordinates": [
          -140.2987243520619,
          -61.12156470863508
        ]
      }
    },
    {
      "type": "Feature",
      "properties": {
        "norad_id": 40701,
        "name": "GAOFEN-8",
        "group": "resource",
        "lat": -80.59474883299727,
        "lon": -144.38578795796468,
        "alt_km": 462.7224120296969,
        "timestamp": "2025-12-08T23:34:03.626789+00:00",
        "meta_object_name": "GAOFEN-8",
        "meta_object_id": "2015-030A",
        "meta_epoch": "2025-12-08T14:34:08.148864",
        "meta_mean_motion": 15.38339313,
        "meta_eccentricity": 0.00114264,
        "meta_inclination": 97.6912,
        "meta_ra_of_asc_node": 160.5469,
        "meta_arg_of_pericenter": 152.4045,
        "meta_mean_anomaly": 207.7808,
        "meta_ephemeris_type": 0,
        "meta_classification_type": "U",
        "meta_norad_cat_id": 40701,
        "meta_element_set_no": 999,
        "meta_rev_at_epoch": 58207,
        "meta_bstar": 0.00062392466,
        "meta_mean_motion_dot": 0.00023588,
        "meta_mean_motion_ddot": 0,
        "tle_line1": "1 40701U 15030A   25342.60703876  .00023588  00000+0  62392-3 0  9994",
        "tle_line2": "2 40701  97.6912 160.5469 0011426 152.4045 207.7808 15.38339313582077"
      },
      "geometry": {
        "type": "Point",
        "coordinates": [
          -144.38578795796468,
          -80.59474883299727
        ]
      }
    },
    {
      "type": "Feature",
      "properties": {
        "norad_id": 40718,
        "name": "CARBONITE 1 (CBNT-1)",
        "group": "resource",
        "lat": -58.73322546605589,
        "lon": -28.579882095908065,
        "alt_km": 620.9504709346356,
        "timestamp": "2025-12-08T23:34:03.626799+00:00",
        "meta_object_name": "CARBONITE 1 (CBNT-1)",
        "meta_object_id": "2015-032D",
        "meta_epoch": "2025-12-08T14:23:33.743904",
        "meta_mean_motion": 14.82715213,
        "meta_eccentricity": 0.00141668,
        "meta_inclination": 97.6403,
        "meta_ra_of_asc_node": 163.8265,
        "meta_arg_of_pericenter": 195.1352,
        "meta_mean_anomaly": 164.944,
        "meta_ephemeris_type": 0,
        "meta_classification_type": "U",
        "meta_norad_cat_id": 40718,
        "meta_element_set_no": 999,
        "meta_rev_at_epoch": 56109,
        "meta_bstar": 0.00054764488,
        "meta_mean_motion_dot": 4.378e-05,
        "meta_mean_motion_ddot": 0,
        "tle_line1": "1 40718U 15032D   25342.59969611  .00004378  00000+0  54764-3 0  9993",
        "tle_line2": "2 40718  97.6403 163.8265 0014166 195.1352 164.9440 14.82715213561099"
      },
      "geometry": {
        "type": "Point",
        "coordinates": [
          -28.579882095908065,
          -58.73322546605589
        ]
      }
    },
    {
      "type": "Feature",
      "properties": {
        "norad_id": 40878,
        "name": "YAOGAN-27",
        "group": "resource",
        "lat": 28.229919603064122,
        "lon": -32.71919254879159,
        "alt_km": 1198.6154188708788,
        "timestamp": "2025-12-08T23:34:03.626809+00:00",
        "meta_object_name": "YAOGAN-27",
        "meta_object_id": "2015-040A",
        "meta_epoch": "2025-12-08T14:17:58.972416",
        "meta_mean_motion": 13.1606006,
        "meta_eccentricity": 0.00076529,
        "meta_inclination": 100.1008,
        "meta_ra_of_asc_node": 332.4034,
        "meta_arg_of_pericenter": 296.9723,
        "meta_mean_anomaly": 63.0609,
        "meta_ephemeris_type": 0,
        "meta_classification_type": "U",
        "meta_norad_cat_id": 40878,
        "meta_element_set_no": 999,
        "meta_rev_at_epoch": 49259,
        "meta_bstar": 2.3133243e-05,
        "meta_mean_motion_dot": -3.4e-07,
        "meta_mean_motion_ddot": 0,
        "tle_line1": "1 40878U 15040A   25342.59582144 -.00000034  00000+0  23133-4 0  9994",
        "tle_line2": "2 40878 100.1008 332.4034 0007652 296.9723  63.0609 13.16060060492592"
      },
      "geometry": {
        "type": "Point",
        "coordinates": [
          -32.71919254879159,
          28.229919603064122
        ]
      }
    }
  ]
}